[{"OBJECT_NAME":"STARLINK-3083","OBJECT_ID":"2021-082AE","EPOCH":"2026-03-09T16:37:39.607392","MEAN_MOTION":15.64475884,"ECCENTRICITY":0.00051971,"INCLINATION":69.9688,"RA_OF_ASC_NODE":173.5767,"ARG_OF_PERICENTER":238.8538,"MEAN_ANOMALY":121.2146,"EPHEMERIS_TYPE":0,"CLASSIFICATION_TYPE":"U","NORAD_CAT_ID":49158,"ELEMENT_SET_NO":999,"REV_AT_EPOCH":25005,"BSTAR":0.00056497056,"MEAN_MOTION_DOT":0.00054695,"MEAN_MOTION_DDOT":0},{"OBJECT_NAME":"CZ-2C R\/B","OBJECT_ID":"2022-058K","EPOCH":"2026-03-09T23:05:50.922816","MEAN_MOTION":15.54254025,"ECCENTRICITY":0.00421889,"INCLINATION":50.1896,"RA_OF_ASC_NODE":316.8869,"ARG_OF_PERICENTER":202.0876,"MEAN_ANOMALY":157.8278,"EPHEMERIS_TYPE":0,"CLASSIFICATION_TYPE":"U","NORAD_CAT_ID":52794,"ELEMENT_SET_NO":999,"REV_AT_EPOCH":21017,"BSTAR":0.00054229515,"MEAN_MOTION_DOT":0.00037216,"MEAN_MOTION_DDOT":0}]
